ATLAS CENTAUR 2         
1 00694U 63047A   24189.59421565  .00004705  00000+0  58620-3 0  9999
2 00694  30.3548 355.6576 0564737 118.5102 247.3537 14.07757060 45435
THOR AGENA D R/B        
1 00733U 64002A   24189.85712843  .00000339  00000+0  14000-3 0  9999
2 00733  99.0750 160.3174 0032375 232.8959 126.9264 14.33247640151354
SL-3 R/B                
1 00877U 64053B   24189.43598550  .00000543  00000+0  13300-3 0  9994
2 00877  65.0787 319.0978 0066902 193.0685 166.8684 14.60393885177640
SL-8 R/B                
1 02802U 67045B   24189.33597302  .00000368  00000+0  11120-3 0  9994
2 02802  74.0119  47.2922 0066070 202.4019 157.4251 14.44693535   840
SL-8 R/B                
1 03230U 68040B   24189.31172249  .00003221  00000+0  28553-3 0  9992
2 03230  74.0350 115.1133 0025409 102.3962 258.0069 14.96438770998473
OAO 2                   
1 03597U 68110A   24189.81455019  .00000413  00000+0  11812-3 0  9990
2 03597  34.9940  68.7666 0005816 341.0357  19.0117 14.46589285931191
ISIS 1                  
1 03669U 69009A   24189.34487821  .00000109  00000+0  79042-4 0  9994
2 03669  88.4363 221.9691 1708233 241.0337 100.9025 11.29929763279589
SERT 2                  
1 04327U 70009A   24189.89197731  .00000002  00000+0  57964-4 0  9997
2 04327  99.1868 157.9574 0003929 290.3253 124.3091 13.58623180697496
SL-3 R/B                
1 05118U 71028B   24189.80203730  .00009276  00000+0  32194-3 0  9995
2 05118  81.2492  64.9894 0033189 257.1203 102.6325 15.29111537894888
ASTEX 1                 
1 05560U 71089A   24189.87101825  .00000764  00000+0  19970-3 0  9992
2 05560  92.7214 314.5227 0015372 351.2238   8.8696 14.49433150774200
SL-8 R/B                
1 05730U 71119B   24189.39040658  .00006375  00000+0  36983-3 0  9995
2 05730  73.8912 224.1661 0613811 315.1083  40.1932 14.22122966568205
COSMOS 482 DESCENT CRAFT
1 06073U 72023E   24189.61034087  .00108469  87677-5  17867-3 0  9993
2 06073  51.9924 255.4726 0677357 126.5405 239.9892 14.69468455704631
OAO 3 (COPERNICUS)      
1 06153U 72065A   24189.27497698  .00000464  00000+0  10166-3 0  9991
2 06153  35.0044 172.8357 0007262 214.4331 162.7462 14.58968146756964
ATLAS CENTAUR R/B       
1 06155U 72065B   24189.58521090  .00001505  00000+0  22331-3 0  9995
2 06155  35.0028 274.0229 0035785 285.0157  74.6583 14.74584993751043
SL-8 R/B                
1 08459U 75112B   24189.35423466  .00000292  00000+0  10596-3 0  9995
2 08459  74.0615  61.1676 0016488 302.2147  57.7408 14.37518323544140
SL-3 R/B                
1 10114U 77057B   24189.91949015  .00006689  00000+0  24494-3 0  9999
2 10114  97.5122 334.4007 0009390 310.8301  49.2123 15.28328542574864
SEASAT 1                
1 10967U 78064A   24190.17339811  .00000456  00000+0  16971-3 0  9998
2 10967 107.9981 287.7730 0002418 280.6943  79.3930 14.45010384418735
SL-14 R/B               
1 11267U 79011B   24189.40408318  .00000842  00000+0  83628-4 0  9991
2 11267  82.5257 315.0071 0015094 297.1961  62.7718 14.90456763437829
SL-8 R/B                
1 11574U 79089B   24189.87866698  .00000422  00000+0  13766-3 0  9996
2 11574  74.0689 139.2698 0014567 109.2981 250.9752 14.41580339348402
SL-14 R/B               
1 11672U 80005B   24190.02388201  .00000922  00000+0  93998-4 0  9994
2 11672  82.5152 164.9589 0017202  39.9410 320.3070 14.89481300406791
SL-8 R/B                
1 12139U 81003B   24189.89438721  .00015295  00000+0  55411-3 0  9994
2 12139  82.9412 122.7184 0365148  97.9158 266.3660 14.83097579223408
SL-3 R/B                
1 12465U 81046B   24189.79743236  .00006235  00000+0  24370-3 0  9996
2 12465  81.2397 292.8515 0026353 321.7410  38.1952 15.25368799358019
METEOR PRIRODA          
1 12585U 81065A   24189.57249839  .00015417  00000+0  38257-3 0  9997
2 12585  97.5428 219.3738 0009266  12.6599 347.4878 15.40408967349052
SL-3 R/B                
1 12904U 81103B   24189.84348257  .00003963  00000+0  22447-3 0  9996
2 12904  81.1620 204.3132 0020714 182.6653 177.4467 15.12622875880984
SL-3 R/B                
1 13068U 82013B   24189.90182341  .00005311  00000+0  28884-3 0  9996
2 13068  81.1783 151.5907 0027324  68.9577 291.4569 15.13974462312077
SL-3 R/B                
1 13154U 82039B   24189.55762003  .00003352  00000+0  23721-3 0  9998
2 13154  81.1799 195.1643 0036428 163.6033 196.6378 15.04058486289713
SL-3 R/B                
1 13403U 82079B   24189.53510856  .00005379  00000+0  28545-3 0  9994
2 13403  81.1498 188.5323 0030944  60.6291 299.8021 15.14748151284998
COSMOS 1408             
1 13552U 82092A   24190.06124053  .00052326  00000+0  46025-3 0  9991
2 13552  82.5520 220.0510 0010955 238.1858 121.8337 15.68489078291974
SL-14 R/B               
1 13553U 82092B   24189.44609778  .00000733  00000+0  81790-4 0  9998
2 13553  82.5688 351.8168 0021275 160.4834 257.0331 14.85471095238290
SL-3 R/B                
1 13819U 83010B   24189.93066276  .00007692  00000+0  28359-3 0  9990
2 13819  81.1104  19.0699 0024036 353.6040   6.4884 15.27384636264635
COSMOS 1455             
1 14032U 83037A   24189.68401218  .00015828  00000+0  41620-3 0  9994
2 14032  82.5057  46.4283 0009260 276.8915  83.1277 15.38407649253141
